{"type": "FeatureCollection", "features": [ {"type": "Feature", "properties": {"norad_id": 36684, "name": "FENGYUN 1C DEB", "group": "fengyun-1c-debris", "lat": 0.051420111315435606, "lon": -99.95219980515385, "alt_km": 576.653933889831, "timestamp": "2025-12-13T16:48:32.998668+00:00", "meta": {"OBJECT_NAME": "FENGYUN 1C DEB", "OBJECT_ID": "1999-025DZE", "EPOCH": "2025-12-12T23:57:46.726272", "MEAN_MOTION": 14.96433548, "ECCENTRICITY": 0.00194916, "INCLINATION": 99.4552, "RA_OF_ASC_NODE": 79.1924, "ARG_OF_PERICENTER": 108.8128, "MEAN_ANOMALY": 251.5204, "EPHEMERIS_TYPE": 0, "CLASSIFICATION_TYPE": "U", "NORAD_CAT_ID": 36684, "ELEMENT_SET_NO": 999, "REV_AT_EPOCH": 65905, "BSTAR": 0.0065586779, "MEAN_MOTION_DOT": 0.00075369, "MEAN_MOTION_DDOT": 0}, "tle": {"line1": "1 36684U 99025DZE 25346.99845748  .00075369  00000+0  65587-2 0  9998", "line2": "2 36684  99.4552  79.1924 0019491 108.8128 251.5204 14.96433548659058"}}, "geometry": {"type": "Point", "coordinates": [-99.95219980515385, 0.051420111315435606]}}, {"type": "Feature", "properties": {"norad_id": 36686, "name": "FENGYUN 1C DEB", "group": "fengyun-1c-debris", "lat": -6.573915988941633, "lon": -179.73772963419913, "alt_km": 601.07848323902, "timestamp": "2025-12-13T16:48:32.998678+00:00", "meta": {"OBJECT_NAME": "FENGYUN 1C DEB", "OBJECT_ID": "1999-025DZG", "EPOCH": "2025-12-12T06:42:02.904192", "MEAN_MOTION": 14.77202514, "ECCENTRICITY": 0.01051548, "INCLINATION": 99.0019, "RA_OF_ASC_NODE": 177.6307, "ARG_OF_PERICENTER": 54.8471, "MEAN_ANOMALY": 306.2533, "EPHEMERIS_TYPE": 0, "CLASSIFICATION_TYPE": "U", "NORAD_CAT_ID": 36686, "ELEMENT_SET_NO": 999, "REV_AT_EPOCH": 65845, "BSTAR": 0.0013733546, "MEAN_MOTION_DOT": 0.00010604, "MEAN_MOTION_DDOT": 0}, "tle": {"line1": "1 36686U 99025DZG 25346.27920028  .00010604  00000+0  13734-2 0  9994", "line2": "2 36686  99.0019 177.6307 0105154  54.8471 306.2533 14.77202514658458"}}, "geometry": {"type": "Point", "coordinates": [-179.73772963419913, -6.573915988941633]}}, {"type": "Feature", "properties": {"norad_id": 36687, "name": "FENGYUN 1C DEB", "group": "fengyun-1c-debris", "lat": -78.205731734433, "lon": -153.1849284175464, "alt_km": 819.9258865539387, "timestamp": "2025-12-13T16:48:32.998688+00:00", "meta": {"OBJECT_NAME": "FENGYUN 1C DEB", "OBJECT_ID": "1999-025DZH", "EPOCH": "2025-12-09T12:23:51.138240", "MEAN_MOTION": 14.04528107, "ECCENTRICITY": 0.00903007, "INCLINATION": 98.7162, "RA_OF_ASC_NODE": 70.0789, "ARG_OF_PERICENTER": 274.4984, "MEAN_ANOMALY": 84.5872, "EPHEMERIS_TYPE": 0, "CLASSIFICATION_TYPE": "U", "NORAD_CAT_ID": 36687, "ELEMENT_SET_NO": 999, "REV_AT_EPOCH": 62677, "BSTAR": 0.00041265981, "MEAN_MOTION_DOT": 6.4e-06, "MEAN_MOTION_DDOT": 0}, "tle": {"line1": "1 36687U 99025DZH 25343.51656410  .00000640  00000+0  41266-3 0  9991", "line2": "2 36687  98.7162  70.0789 0090300 274.4984  84.5872 14.04528107626770"}}, "geometry": {"type": "Point", "coordinates": [-153.1849284175464, -78.205731734433]}}, {"type": "Feature", "properties": {"norad_id": 36689, "name": "FENGYUN 1C DEB", "group": "fengyun-1c-debris", "lat": -42.242796214892714, "lon": -110.77853244182265, "alt_km": 778.5312783648869, "timestamp": "2025-12-13T16:48:32.998698+00:00", "meta": {"OBJECT_NAME": "FENGYUN 1C DEB", "OBJECT_ID": "1999-025DZK", "EPOCH": "2025-11-28T10:04:14.213280", "MEAN_MOTION": 13.74189275, "ECCENTRICITY": 0.03131537, "INCLINATION": 98.4796, "RA_OF_ASC_NODE": 227.8431, "ARG_OF_PERICENTER": 334.7216, "MEAN_ANOMALY": 23.8887, "EPHEMERIS_TYPE": 0, "CLASSIFICATION_TYPE": "U", "NORAD_CAT_ID": 36689, "ELEMENT_SET_NO": 999, "REV_AT_EPOCH": 58016, "BSTAR": 0.0027905602, "MEAN_MOTION_DOT": 3.71e-05, "MEAN_MOTION_DDOT": 0}, "tle": {"line1": "1 36689U 99025DZK 25332.41960895  .00003710  00000+0  27906-2 0  9990", "line2": "2 36689  98.4796 227.8431 0313153 334.7216  23.8887 13.74189275580169"}}, "geometry": {"type": "Point", "coordinates": [-110.77853244182265, -42.242796214892714]}}, {"type": "Feature", "properties": {"norad_id": 36691, "name": "FENGYUN 1C DEB", "group": "fengyun-1c-debris", "lat": -74.59234970113718, "lon": 134.30734340360965, "alt_km": 790.9976830054211, "timestamp": "2025-12-13T16:48:32.998708+00:00", "meta": {"OBJECT_NAME": "FENGYUN 1C DEB", "OBJECT_ID": "1999-025DZM", "EPOCH": "2025-12-08T17:50:07.073952", "MEAN_MOTION": 14.07105067, "ECCENTRICITY": 0.01290803, "INCLINATION": 98.6374, "RA_OF_ASC_NODE": 343.0423, "ARG_OF_PERICENTER": 246.8073, "MEAN_ANOMALY": 111.9457, "EPHEMERIS_TYPE": 0, "CLASSIFICATION_TYPE": "U", "NORAD_CAT_ID": 36691, "ELEMENT_SET_NO": 999, "REV_AT_EPOCH": 59553, "BSTAR": 0.0032098608, "MEAN_MOTION_DOT": 5.753e-05, "MEAN_MOTION_DDOT": 0}, "tle": {"line1": "1 36691U 99025DZM 25342.74313743  .00005753  00000+0  32099-2 0  9992", "line2": "2 36691  98.6374 343.0423 0129080 246.8073 111.9457 14.07105067595539"}}, "geometry": {"type": "Point", "coordinates": [134.30734340360965, -74.59234970113718]}}, {"type": "Feature", "properties": {"norad_id": 36692, "name": "FENGYUN 1C DEB", "group": "fengyun-1c-debris", "lat": -30.918260243636553, "lon": 67.78195549151525, "alt_km": 1001.2914863833057, "timestamp": "2025-12-13T16:48:32.998718+00:00", "meta": {"OBJECT_NAME": "FENGYUN 1C DEB", "OBJECT_ID": "1999-025DZN", "EPOCH": "2025-12-04T12:56:52.897632", "MEAN_MOTION": 13.93448865, "ECCENTRICITY": 0.0115856, "INCLINATION": 99.9932, "RA_OF_ASC_NODE": 243.9547, "ARG_OF_PERICENTER": 34.8482, "MEAN_ANOMALY": 326.0192, "EPHEMERIS_TYPE": 0, "CLASSIFICATION_TYPE": "U", "NORAD_CAT_ID": 36692, "ELEMENT_SET_NO": 999, "REV_AT_EPOCH": 59691, "BSTAR": 0.0009556, "MEAN_MOTION_DOT": 1.272e-05, "MEAN_MOTION_DDOT": 0}, "tle": {"line1": "1 36692U 99025DZN 25338.53950113  .00001272  00000+0  95560-3 0  9998", "line2": "2 36692  99.9932 243.9547 0115856  34.8482 326.0192 13.93448865596912"}}, "geometry": {"type": "Point", "coordinates": [67.78195549151525, -30.918260243636553]}}, {"type": "Feature", "properties": {"norad_id": 36695, "name": "FENGYUN 1C DEB", "group": "fengyun-1c-debris", "lat": -80.83805952176411, "lon": 85.31445646668901, "alt_km": 888.7724442988856, "timestamp": "2025-12-13T16:48:32.998728+00:00", "meta": {"OBJECT_NAME": "FENGYUN 1C DEB", "OBJECT_ID": "1999-025DZR", "EPOCH": "2025-12-09T16:47:24.081792", "MEAN_MOTION": 14.43738947, "ECCENTRICITY": 0.02573024, "INCLINATION": 98.2214, "RA_OF_ASC_NODE": 325.1368, "ARG_OF_PERICENTER": 139.5563, "MEAN_ANOMALY": 222.5073, "EPHEMERIS_TYPE": 0, "CLASSIFICATION_TYPE": "U", "NORAD_CAT_ID": 36695, "ELEMENT_SET_NO": 999, "REV_AT_EPOCH": 89524, "BSTAR": 0.00025681579, "MEAN_MOTION_DOT": 1.255e-05, "MEAN_MOTION_DDOT": 0}, "tle": {"line1": "1 36695U 99025DZR 25343.69958428  .00001255  00000+0  25682-3 0  9990", "line2": "2 36695  98.2214 325.1368 0257302 139.5563 222.5073 14.43738947895245"}}, "geometry": {"type": "Point", "coordinates": [85.31445646668901, -80.83805952176411]}}, {"type": "Feature", "properties": {"norad_id": 36696, "name": "FENGYUN 1C DEB", "group": "fengyun-1c-debris", "lat": 42.67945392218315, "lon": -174.8661804079643, "alt_km": 773.6342222767835, "timestamp": "2025-12-13T16:48:32.998738+00:00", "meta": {"OBJECT_NAME": "FENGYUN 1C DEB", "OBJECT_ID": "1999-025DZS", "EPOCH": "2025-12-12T23:29:27.613248", "MEAN_MOTION": 14.39206881, "ECCENTRICITY": 0.00228959, "INCLINATION": 98.9916, "RA_OF_ASC_NODE": 355.9822, "ARG_OF_PERICENTER": 328.4138, "MEAN_ANOMALY": 31.5673, "EPHEMERIS_TYPE": 0, "CLASSIFICATION_TYPE": "U", "NORAD_CAT_ID": 36696, "ELEMENT_SET_NO": 999, "REV_AT_EPOCH": 64399, "BSTAR": 0.0029501232, "MEAN_MOTION_DOT": 9.135e-05, "MEAN_MOTION_DDOT": 0}, "tle": {"line1": "1 36696U 99025DZS 25346.97879182  .00009135  00000+0  29501-2 0  9992", "line2": "2 36696  98.9916 355.9822 0022895 328.4138  31.5673 14.39206881643991"}}, "geometry": {"type": "Point", "coordinates": [-174.8661804079643, 42.67945392218315]}}, {"type": "Feature", "properties": {"norad_id": 36699, "name": "FENGYUN 1C DEB", "group": "fengyun-1c-debris", "lat": 58.99673520757387, "lon": 176.69111628894248, "alt_km": 737.6863937210401, "timestamp": "2025-12-13T16:48:32.998748+00:00", "meta": {"OBJECT_NAME": "FENGYUN 1C DEB", "OBJECT_ID": "1999-025DZV", "EPOCH": "2025-12-11T05:14:28.287744", "MEAN_MOTION": 14.24290495, "ECCENTRICITY": 0.00945804, "INCLINATION": 98.5589, "RA_OF_ASC_NODE": 339.76, "ARG_OF_PERICENTER": 134.5119, "MEAN_ANOMALY": 226.3839, "EPHEMERIS_TYPE": 0, "CLASSIFICATION_TYPE": "U", "NORAD_CAT_ID": 36699, "ELEMENT_SET_NO": 999, "REV_AT_EPOCH": 73305, "BSTAR": 0.00032955005, "MEAN_MOTION_DOT": 7.55e-06, "MEAN_MOTION_DDOT": 0}, "tle": {"line1": "1 36699U 99025DZV 25345.21838296  .00000755  00000+0  32955-3 0  9999", "line2": "2 36699  98.5589 339.7600 0094580 134.5119 226.3839 14.24290495733058"}}, "geometry": {"type": "Point", "coordinates": [176.69111628894248, 58.99673520757387]}}, {"type": "Feature", "properties": {"norad_id": 36701, "name": "FENGYUN 1C DEB", "group": "fengyun-1c-debris", "lat": -69.39054615429978, "lon": 85.3521680346099, "alt_km": 810.2211234807037, "timestamp": "2025-12-13T16:48:32.998759+00:00", "meta": {"OBJECT_NAME": "FENGYUN 1C DEB", "OBJECT_ID": "1999-025DZX", "EPOCH": "2025-12-09T15:15:38.057760", "MEAN_MOTION": 13.71305696, "ECCENTRICITY": 0.0260138, "INCLINATION": 102.7439, "RA_OF_ASC_NODE": 296.9694, "ARG_OF_PERICENTER": 260.5557, "MEAN_ANOMALY": 96.6087, "EPHEMERIS_TYPE": 0, "CLASSIFICATION_TYPE": "U", "NORAD_CAT_ID": 36701, "ELEMENT_SET_NO": 999, "REV_AT_EPOCH": 61096, "BSTAR": 0.0037365, "MEAN_MOTION_DOT": 4.196e-05, "MEAN_MOTION_DDOT": 0}, "tle": {"line1": "1 36701U 99025DZX 25343.63585715  .00004196  00000+0  37365-2 0  9994", "line2": "2 36701 102.7439 296.9694 0260138 260.5557  96.6087 13.71305696610969"}}, "geometry": {"type": "Point", "coordinates": [85.3521680346099, -69.39054615429978]}}]}